{
    "links": {
        "self": "http://www.neowsapp.com/rest/v1/neo/3513052?api_key=iIulBulltgU6a56xZRHN4H3l9WmuAYTsLGpBGhQ2"
    },
    "id": "3513052",
    "neo_reference_id": "3513052",
    "name": "(2010 FA10)",
    "designation": "2010 FA10",
    "nasa_jpl_url": "http://ssd.jpl.nasa.gov/sbdb.cgi?sstr=3513052",
    "absolute_magnitude_h": 26.0,
    "estimated_diameter": {
        "kilometers": {
            "estimated_diameter_min": 0.0167708462,
            "estimated_diameter_max": 0.0375007522
        },
        "meters": {
            "estimated_diameter_min": 16.7708462163,
            "estimated_diameter_max": 37.5007521798
        },
        "miles": {
            "estimated_diameter_min": 0.0104209175,
            "estimated_diameter_max": 0.0233018799
        },
        "feet": {
            "estimated_diameter_min": 55.0224631002,
            "estimated_diameter_max": 123.0339677816
        }
    },
    "is_potentially_hazardous_asteroid": false,
    "close_approach_data": [
        {
            "close_approach_date": "2010-03-21",
            "close_approach_date_full": "2010-Mar-21 11:09",
            "epoch_date_close_approach": 1269169740000,
            "relative_velocity": {
                "kilometers_per_second": "9.8852022603",
                "kilometers_per_hour": "35586.7281369919",
                "miles_per_hour": "22112.2089360103"
            },
            "miss_distance": {
                "astronomical": "0.0166405046",
                "lunar": "6.4731562894",
                "kilometers": "2489384.043885202",
                "miles": "1546831.5173397076"
            },
            "orbiting_body": "Earth"
        },
        {
            "close_approach_date": "2011-12-04",
            "close_approach_date_full": "2011-Dec-04 10:40",
            "epoch_date_close_approach": 1322995200000,
            "relative_velocity": {
                "kilometers_per_second": "16.9478499278",
                "kilometers_per_hour": "61012.2597400354",
                "miles_per_hour": "37910.6455034681"
            },
            "miss_distance": {
                "astronomical": "0.3570772619",
                "lunar": "138.9030548791",
                "kilometers": "53417997.805672153",
                "miles": "33192404.6841875914"
            },
            "orbiting_body": "Earth"
        },
        {
            "close_approach_date": "2050-04-12",
            "close_approach_date_full": "2050-Apr-12 17:24",
            "epoch_date_close_approach": 2533397040000,
            "relative_velocity": {
                "kilometers_per_second": "17.6951795392",
                "kilometers_per_hour": "63702.6463411639",
                "miles_per_hour": "39582.3471112638"
            },
            "miss_distance": {
                "astronomical": "0.3092397703",
                "lunar": "120.2942706467",
                "kilometers": "46261610.956169261",
                "miles": "28745632.0954913618"
            },
            "orbiting_body": "Earth"
        }
    ],
    "orbital_data": {
        "orbit_id": "9",
        "orbit_determination_date": "2017-04-06 08:58:01",
        "first_observation_date": "2010-03-21",
        "last_observation_date": "2010-03-24",
        "data_arc_in_days": 3,
        "observations_used": 32,
        "orbit_uncertainty": "7",
        "minimum_orbit_intersection": ".0119004",
        "jupiter_tisserand_invariant": "4.364",
        "epoch_osculation": "2459000.5",
        "eccentricity": ".3960696046313028",
        "semi_major_axis": "1.53857823238008",
        "inclination": "10.58841163761546",
        "ascending_node_longitude": "1.749933431973037",
        "orbital_period": "697.0722635999731",
        "perihelion_distance": ".9291941601869729",
        "perihelion_argument": "134.7716720224455",
        "aphelion_distance": "2.147962304573187",
        "perihelion_time": "2458726.269940579941",
        "mean_anomaly": "141.6249455707436",
        "mean_motion": ".5164457385534309",
        "equinox": "J2000",
        "orbit_class": {
            "orbit_class_type": "APO",
            "orbit_class_description": "Near-Earth asteroid orbits which cross the Earth’s orbit similar to that of 1862 Apollo",
            "orbit_class_range": "a (semi-major axis) > 1.0 AU; q (perihelion) < 1.017 AU"
        }
    },
    "is_sentry_object": false
}